{
  "type": "FeatureCollection",
  "features": [
    {
      "type": "Feature",
      "properties": {
        "route_id": "DUB-HOL",
        "origin": "DUB",
        "destination": "HOL",
        "name": "Dublin - Holyhead"
      },
      "geometry": {
        "type": "LineString",
        "coordinates": [
          [
            -6.0679148,
            53.3917292
          ],
          [
            -6.0673256,
            53.3934068
          ],
          [
            -6.0680163,
            53.3955213
          ],
          [
            -6.0616733,
            53.3958778
          ],
          [
            -6.0502234,
            53.3935422
          ],
          [
            -5.9923049,
            53.3837598
          ],
          [
            -5.8786458,
            53.3673207
          ],
          [
            -5.7457532,
            53.3571425
          ],
          [
            -5.4836649,
            53.3379328
          ],
          [
            -5.1281562,
            53.3222121
          ],
          [
            -4.8773418,
            53.3077261
          ],
          [
            -4.7920229,
            53.3257069
          ],
          [
            -4.7521947,
            53.3405328
          ],
          [
            -4.7188244,
            53.3464066
          ],
          [
            -4.6684997,
            53.3468516
          ],
          [
            -4.6117485,
            53.3332174
          ],
          [
            -4.6039316,
            53.3289005
          ],
          [
            -4.6107639,
            53.3203889
          ],
          [
            -4.6122813,
            53.317964
          ],
          [
            -4.6148646,
            53.3149713
          ],
          [
            -4.6193189,
            53.3142664
          ],
          [
            -4.619773,
            53.3142871
          ]
        ]
      }
    }
  ]
}
